STARLINK-30495          
1 57968U 23151E   26068.14863451  .00001291  00000+0  57761-4 0  9993
2 57968  43.0042 339.0612 0001337 263.7152  96.3547 15.26761318135681
TRANSPORTER-12 OBJECT BT
1 62674U 25009BT  26068.71416991  .00013824  00000+0  51029-3 0  9998
2 62674  97.4094 151.5992 0003682 313.5044  46.5889 15.27872239121360
